UBAKUSAT                
1 43467U 98067NQ  19311.49805469  .00015326  00000-0  15077-3 0  9994
2 43467  51.6369 340.5951 0000989 295.1441  64.9452 15.66213094 85072
BATSU-CS1 (IRAZU)       
1 43468U 98067NR  19311.47382593  .00062405  00000-0  35024-3 0  9995
2 43468  51.6362 324.5708 0003365  41.1665 318.9589 15.78663905185264
CUBERRT                 
1 43546U 98067NU  19311.54753711  .00008561  00000-0  82395-4 0  9991
2 43546  51.6377 339.4266 0003857 327.2681  32.8076 15.67485443 75227
TEMPEST-D               
1 43547U 98067NV  19311.55495522  .00004367  00000-0  60368-4 0  9992
2 43547  51.6391 354.5052 0005071 302.2719  57.7782 15.59480560 74708
RAINCUBE                
1 43548U 98067NW  19311.55170535  .00014928  00000-0  15488-3 0  9993
2 43548  51.6367 346.1873 0005105 325.6289  34.4375 15.64885429 75260
HALOSAT                 
1 43549U 98067NX  19311.56424728  .00015358  00000-0  16012-3 0  9993
2 43549  51.6380 346.2987 0004973 328.0178  32.0515 15.64734760 74821
ENDUROSAT ONE           
1 43551U 98067NZ  19311.54048790  .00019603  00000-0  18357-3 0  9996
2 43551  51.6368 342.3780 0005639 339.5160  20.5609 15.67226327 75281
EQUISAT                 
1 43552U 98067PA  19311.53585966  .00015066  00000-0  15498-3 0  9999
2 43552  51.6387 345.3949 0005833 333.4016  26.6679 15.65090691 75209
AEROCUBE 12A            
1 43556U 18046C   19311.49455765  .00001757  00000-0  73804-4 0  9998
2 43556  51.6417  96.2730 0008160 212.9126 147.1347 15.29087087 73255
AEROCUBE 12B            
1 43557U 18046D   19311.52181020  .00000642  00000-0  35106-4 0  9998
2 43557  51.6424  96.4490 0008064 213.5030 146.5440 15.28913402 73203
UITMSAT-1               
1 43589U 98067PD  19311.51284181  .00017620  00000-0  17621-3 0  9990
2 43589  51.6359 345.8985 0005493 343.4277  16.6539 15.65666806 70931
MAYA-1                  
1 43590U 98067PE  19311.37876301  .00019715  00000-0  19637-3 0  9993
2 43590  51.6363 346.5100 0005522 342.6255  17.4551 15.65678022 70841
BHUTAN-1                
1 43591U 98067PF  19311.49169854  .00019446  00000-0  19325-3 0  9990
2 43591  51.6370 345.8005 0005720 343.6266  16.4544 15.65745454 70866
SIRIUSSAT-1             
1 43595U 98067PG  19311.62449593  .00015164  00000-0  15861-3 0  9994
2 43595  51.6361 347.4034 0002905 313.9393  46.1362 15.64671573 70039
SIRIUSSAT-2             
1 43596U 98067PH  19311.60588052  .00015962  00000-0  16772-3 0  9995
2 43596  51.6373 348.0804 0003321 310.4036  49.6669 15.64506833 70027
TANUSHA-3               
1 43597U 98067PJ  19311.61377089  .00023091  00000-0  21487-3 0  9994
2 43597  51.6350 344.2903 0003538 336.0220  24.0611 15.67274961 70076
SURFSAT                 
1 43614U 18070B   19311.58921937  .00002767  00000-0  73564-4 0  9994
2 43614  93.0371  62.3088 0018174 114.7975 245.5172 15.38144374 64214
CP7 (DAVE)              
1 43615U 18070C   19311.53823296  .00002812  00000-0  74990-4 0  9994
2 43615  93.0374  62.2861 0018298 114.3618 245.9548 15.38043597 64208
ELFIN-B                 
1 43616U 18070D   19311.54415270  .00004115  00000-0  10650-3 0  9995
2 43616  93.0334  62.1949 0018895 117.4386 242.8792 15.38927910 64229
ELFIN-A                 
1 43617U 18070E   19311.59763626  .00004358  00000-0  11251-3 0  9999
2 43617  93.0389  62.5435 0018129 114.2685 246.0465 15.39018848 64237
CUBEBEL-1 (BSUSAT-1)    
1 43666U 18083E   19311.77324822  .00000689  00000-0  37372-4 0  9994
2 43666  97.5107 335.2307 0016510  58.2899  53.5133 15.17812197 56837
DEBRISSAT-2             
1 43680U 98067PR  19311.60465343  .00031385  00000-0  26419-3 0  9992
2 43680  51.6354 342.7732 0004143 355.2495   4.8462 15.69549927 78826
CICERO 10               
1 43690U 18088A   19311.58795673  .00000949  00000-0  42235-4 0  9994
2 43690  85.0413 225.0828 0016986  52.6342 307.6443 15.19861381 54902
IRVINE01                
1 43693U 18088D   19311.53460659  .00002278  00000-0  97850-4 0  9995
2 43693  85.0383 224.4150 0019905  37.1075 323.1538 15.21902033 54931
PROXIMA I               
1 43694U 18088E   19311.57066384  .00001004  00000-0  42461-4 0  9991
2 43694  85.0356 224.1851 0020589  28.9886 331.2494 15.21593629 54955
PROXIMA II              
1 43696U 18088G   19311.56936952  .00001003  00000-0  42435-4 0  9999
2 43696  85.0357 224.1876 0020628  28.9330 331.3050 15.21597744 54943
FACSAT-1                
1 43721U 18096C   19311.65992184  .00001301  00000-0  52313-4 0  9993
2 43721  97.4466  21.2133 0017756 184.2145 175.8947 15.26630881 52398
CENTAURI-2              
1 43722U 18096D   19311.42022120  .00001992  00000-0  77831-4 0  9991
2 43722  97.4471  21.0799 0017847 185.5905 174.5137 15.26944949 52356
INNOSAT-2               
1 43738U 18096V   19311.67003111  .00002638  00000-0  94979-4 0  9994
2 43738  97.4481  22.4378 0023792 195.8455 164.2044 15.29239629 52473
SIRION PATHFINDER-2     
1 43759U 18099B   19311.66519815  .00000204  00000-0  23842-4 0  9990
2 43759  97.7321  21.8116 0013853 201.5222 158.5418 14.95182868 50630
CORVUS-BC 4             
1 43767U 18099K   19311.65721348 -.00000027  00000-0  28202-5 0  9994
2 43767  97.7307  21.4521 0011239 204.2325 155.8368 14.94625632 50622
MOVE-II                 
1 43780U 18099Y   19311.62031879  .00000875  00000-0  84843-4 0  9991
2 43780  97.7322  21.6687 0012888 212.8745 147.1676 14.95180960 50617
SPACEBEE-7              
1 43816U 18099BL  19311.47199012  .00000644  00000-0  63254-4 0  9995
2 43816  97.7333  21.7704 0013187 197.8782 162.1977 14.95508159 50161
SPACEBEE-5              
1 43817U 18099BM  19311.63174227  .00001067  00000-0  10052-3 0  9992
2 43817  97.7368  22.0907 0013010 197.3583 162.7195 14.95872757 50197
SPACEBEE-6              
1 43818U 18099BN  19311.65907741  .00000361  00000-0  37664-4 0  9995
2 43818  97.7341  22.0068 0013187 197.7312 162.3451 14.95622538 50344
SHIELDS 1               
1 43850U 18104B   19311.47857612  .00000041  00000-0  00000-0 0  9994
2 43850  85.0257 322.7447 0015509 160.3973 199.7899 15.21188538 49576
STF-1                   
1 43852U 18104D   19311.58933588  .00000041  00000-0  00000-0 0  9995
2 43852  85.0318 323.0347 0014760 174.3620 185.7811 15.20827034 49570
ZACUBE-2                
1 43907U 18111AH  19311.67344637  .00000544  00000-0  24994-4 0  9995
2 43907  97.2786 212.9194 0020774 206.3949 153.6232 15.24330479 48074
LUME 1                  
1 43908U 18111AJ  19311.51732034  .00001026  00000-0  44277-4 0  9993
2 43908  97.2785 212.8221 0020589 207.0576 152.9590 15.24585538 48057
AOBA VELOX-IV           
1 43940U 19003J   19311.70478368  .00001459  00000-0  62298-4 0  9991
2 43940  97.2606   5.3149 0022650 292.2782 163.5171 15.24232108 44719
CATSAT-2                
1 44029U 98067PV  19311.40830626  .00013214  00000-0  17232-3 0  9992
2 44029  51.6404   1.0514 0004884 328.0531  32.0165 15.59049144 43666
DELPHINI                
1 44030U 98067PW  19311.57783176  .00011651  00000-0  15096-3 0  9998
2 44030  51.6380 359.9002 0004716 329.3766  30.6951 15.59360875 43660
UNITE                   
1 44031U 98067PX  19311.41112489  .00008006  00000-0  11347-3 0  9990
2 44031  51.6401   2.5538 0003199 325.3507  34.7276 15.57464495 43614
TECHEDSAT 8             
1 44032U 98067PY  19311.63946867  .00039931  00000-0  36664-3 0  9990
2 44032  51.6368 352.8040 0004698 351.9077   8.1843 15.67296187 43749
CATSAT-1                
1 44033U 98067PZ  19311.53629758  .00011317  00000-0  14855-3 0  9993
2 44033  51.6405   0.4079 0004583 330.0128  30.0601 15.59048058 43590
RAAVANA-1               
1 44329U 98067QE  19311.56133154  .00008050  00000-0  12993-3 0  9995
2 44329  51.6418   8.0703 0006283 253.6482 106.3818 15.53856420 22309
UGUISU                  
1 44330U 98067QF  19311.43638910  .00008645  00000-0  13921-3 0  9995
2 44330  51.6417   8.7349 0006276 251.3140 108.7170 15.53809969 22269
NEPALISAT-1             
1 44331U 98067QG  19311.42951571  .00008493  00000-0  13651-3 0  9997
2 44331  51.6418   8.6905 0006355 254.0596 105.9694 15.53889221 22271
SPOOQY-1                
1 44332U 98067QH  19311.36238221  .00008168  00000-0  13155-3 0  9999
2 44332  51.6416   8.9896 0005182 256.6035 103.4378 15.53899115 22225
SPACEBEE-9              
1 44370U 19037F   19311.33877145  .00005261  00000-0  13544-3 0  9995
2 44370  45.0173 280.2096 0015699 313.6869  46.2715 15.40356639 20169
SPACEBEE-8              
1 44371U 19037G   19311.35516257  .00011737  00000-0  27912-3 0  9991
2 44371  45.0145 279.4976 0014363 316.3467  43.6289 15.41687133 20161
IOD-1 GEMS              
1 44385U 98067QK  19311.58629422  .00011609  00000-0  18241-3 0  9993
2 44385  51.6429   8.2526 0002553 217.7538 142.3274 15.54116461 19775
MOVE-IIB                
1 44398U 19038N   19311.60515841  .00000988  00000-0  61241-4 0  9997
2 44398  97.5062 271.1872 0025526 171.5038 188.6630 15.11823868 18905
SONATE                  
1 44400U 19038Q   19311.60549752  .00000287  00000-0  20516-4 0  9991
2 44400  97.5080 271.2011 0025537 169.7392 190.4365 15.11731718 18907
LUCKY-7                 
1 44406U 19038W   19311.39113465  .00000554  00000-0  35873-4 0  9990
2 44406  97.5078 271.0249 0024985 170.2273 189.9449 15.11937495 18863
BEESAT 9                
1 44412U 19038AC  19311.59304847  .00000692  00000-0  43960-4 0  9994
2 44412  97.5074 271.2121 0022933 175.0599 185.0862 15.11923616 18598
JAISAT-1                
1 44419U 19038F   19311.61840571  .00000695  00000-0  43552-4 0  9993
2 44419  97.5075 271.3332 0021785 174.5810 185.5661 15.12412332 18912
SWIATOWID               
1 44426U 98067QL  19311.61279432  .00011342  00000-0  17824-3 0  9995
2 44426  51.6446   8.1586 0003118 202.5758 280.2236 15.54139829 19783
KRAKSAT                 
1 44427U 98067QM  19311.56491800  .00006072  00000-0  10322-3 0  9995
2 44427  51.6431   8.8549 0003404 202.7069 157.3771 15.52918323 19813
